NORAD_CAT_ID,OBJECT_NAME,OBJECT_TYPE,EPOCH,MEAN_MOTION,ECCENTRICITY,INCLINATION,RA_OF_ASC_NODE,ARG_OF_PERICENTER,MEAN_ANOMALY,BSTAR,MEAN_MOTION_DOT,MEAN_MOTION_DDOT,TLE_LINE0,TLE_LINE1,TLE_LINE2,SEMIMAJOR_AXIS,PERIOD,APOGEE,PERIGEE,DECAYED
53160.0,STARLINK-4096,PAYLOAD,2023-11-23 09:05:44,15.08852049,0.0001542,53.217,322.9532,93.652,266.4648,0.00026455,3.926e-05,0.0,0 STARLINK-4096,1 53160U 22083AE  23327.37899109  .00003926  00000-0  26455-3 0  9998,2 53160  53.2170 322.9532 0001542  93.6520 266.4648 15.08852049 74951,6917.844,95.437,540.775,538.642,0.0
53160.0,STARLINK-4096,PAYLOAD,2023-11-23 23:24:13,15.08831353,0.0001488,53.217,320.2784,104.4251,255.6907,3.687e-05,2.99e-06,0.0,0 STARLINK-4096,1 53160U 22083AE  23327.97516121  .00000299  00000-0  36870-4 0  9997,2 53160  53.2170 320.2784 0001488 104.4251 255.6907 15.08831353 75675,6917.907,95.438,540.801,538.742,0.0
53160.0,STARLINK-4096,PAYLOAD,2023-11-24 08:56:32,15.08833486,0.0001462,53.216,318.4926,99.3917,260.7241,3.5463e-05,2.76e-06,0.0,0 STARLINK-4096,1 53160U 22083AE  23328.37260289  .00000276  00000-0  35463-4 0  9995,2 53160  53.2160 318.4926 0001462  99.3917 260.7241 15.08833486 75109,6917.9,95.438,540.777,538.754,0.0
53160.0,STARLINK-4096,PAYLOAD,2023-11-25 04:01:10,15.08845841,0.0001436,53.2161,314.9247,94.3427,265.7729,0.00027302,4.061e-05,0.0,0 STARLINK-4096,1 53160U 22083AE  23329.16748380  .00004061  00000-0  27302-3 0  9994,2 53160  53.2161 314.9247 0001436  94.3427 265.7729 15.08845841 75855,6917.863,95.437,540.721,538.734,0.0
53160.0,STARLINK-4096,PAYLOAD,2023-11-25 05:36:33,15.08847116,0.0001455,53.216,314.6272,102.0249,258.0907,0.00046078,7.054e-05,0.0,0 STARLINK-4096,1 53160U 22083AE  23329.23372431  .00007054  00000-0  46078-3 0  9998,2 53160  53.2160 314.6272 0001455 102.0249 258.0907 15.08847116 75231,6917.859,95.437,540.73,538.717,0.0
53160.0,STARLINK-4096,PAYLOAD,2023-11-26 08:38:06,15.08874676,0.0001527,53.2161,309.5703,99.196,260.9205,0.00091594,0.00014333,0.0,0 STARLINK-4096,1 53160U 22083AE  23330.35979326  .00014333  00000-0  91594-3 0  9990,2 53160  53.2161 309.5703 0001527  99.1960 260.9205 15.08874676 76033,6917.774,95.435,540.696,538.583,0.0
53160.0,STARLINK-4096,PAYLOAD,2023-11-26 22:56:35,15.08820875,0.0002208,53.2154,306.8963,111.4952,248.6275,-0.00038505,-6.408e-05,0.0,0 STARLINK-4096,1 53160U 22083AE  23330.95596821 -.00006408  00000-0 -38505-3 0  9990,2 53160  53.2154 306.8963 0002208 111.4952 248.6275 15.08820875 75490,6917.939,95.439,541.331,538.276,0.0
53160.0,STARLINK-4096,PAYLOAD,2023-11-27 03:42:45,15.08811282,0.000159,53.2175,306.0059,75.8672,284.2497,-0.00051526,-8.473e-05,0.0,0 STARLINK-4096,1 53160U 22083AE  23331.15469638 -.00008473  00000-0 -51526-3 0  9990,2 53160  53.2175 306.0059 0001590  75.8672 284.2497 15.08811282 76154,6917.968,95.439,540.933,538.733,0.0
53160.0,STARLINK-4096,PAYLOAD,2023-11-27 08:28:55,15.0881009,0.000164,53.2168,305.1102,80.2511,279.8667,-0.00038286,-6.371e-05,0.0,0 STARLINK-4096,1 53160U 22083AE  23331.35342044 -.00006371  00000-0 -38286-3 0  9996,2 53160  53.2168 305.1102 0001640  80.2511 279.8667 15.08810090 75551,6917.972,95.439,540.971,538.702,0.0
53160.0,STARLINK-4096,PAYLOAD,2023-11-28 01:58:09,15.08841767,0.0001724,53.2178,301.8359,102.8864,257.232,0.00093451,0.00014617,0.0,0 STARLINK-4096,1 53160U 22083AE  23332.08205833  .00014617  00000-0  93451-3 0  9996,2 53160  53.2178 301.8359 0001724 102.8864 257.2320 15.08841767 76297,6917.875,95.437,540.933,538.547,0.0
53160.0,STARLINK-4096,PAYLOAD,2023-11-28 08:19:42,15.08869868,0.0001665,53.217,300.6516,88.1984,271.9198,0.0017088,0.00027035,0.0,0 STARLINK-4096,1 53160U 22083AE  23332.34701440  .00027035  00000-0  17088-2 0  9999,2 53160  53.2170 300.6516 0001665  88.1984 271.9198 15.08869868 76337,6917.789,95.436,540.806,538.502,0.0
53160.0,STARLINK-4096,PAYLOAD,2023-11-28 21:02:47,15.08856327,0.0001901,53.2179,298.2761,90.2528,269.8682,0.00033891,5.112e-05,0.0,0 STARLINK-4096,1 53160U 22083AE  23332.87693305  .00005112  00000-0  33891-3 0  9990,2 53160  53.2179 298.2761 0001901  90.2528 269.8682 15.08856327 76410,6917.83,95.437,541.011,538.38,0.0
53160.0,STARLINK-4096,PAYLOAD,2023-11-29 06:35:05,15.08872856,0.0001655,53.2178,296.4885,92.9406,267.1776,0.0019133,0.00030321,0.0,0 STARLINK-4096,1 53160U 22083AE  23333.27436863  .00030321  00000-0  19133-2 0  9991,2 53160  53.2178 296.4885 0001655  92.9406 267.1776 15.08872856 76472,6917.78,95.435,540.79,538.5,0.0
53160.0,STARLINK-4096,PAYLOAD,2023-11-30 03:15:06,15.08839655,0.0001824,53.2169,292.6195,94.1736,265.9465,0.00062277,9.637e-05,0.0,0 STARLINK-4096,1 53160U 22083AE  23334.13549258  .00009637  00000-0  62277-3 0  9994,2 53160  53.2169 292.6195 0001824  94.1736 265.9465 15.08839655 76608,6917.881,95.438,541.008,538.485,0.0
53160.0,STARLINK-4096,PAYLOAD,2023-12-01 03:05:54,15.08833313,0.0001564,53.2172,288.1621,86.9276,273.1895,0.00085969,0.00013418,0.0,0 STARLINK-4096,1 53160U 22083AE  23335.12910039  .00013418  00000-0  85969-3 0  9998,2 53160  53.2172 288.1621 0001564  86.9276 273.1895 15.08833313 76754,6917.901,95.438,540.848,538.684,0.0
53160.0,STARLINK-4096,PAYLOAD,2023-12-01 06:16:40,15.08847378,0.0001636,53.217,287.5672,83.5054,276.6125,0.0012933,0.00020359,0.0,0 STARLINK-4096,1 53160U 22083AE  23335.26157950  .00020359  00000-0  12933-2 0  9990,2 53160  53.2170 287.5672 0001636  83.5054 276.6125 15.08847378 76770,6917.858,95.437,540.855,538.591,0.0
53160.0,STARLINK-4096,PAYLOAD,2023-12-02 01:21:17,15.0886294,0.0001734,53.2179,283.9922,77.7415,282.3771,0.00082405,0.00012859,0.0,0 STARLINK-4096,1 53160U 22083AE  23336.05645214  .00012859  00000-0  82405-3 0  9991,2 53160  53.2179 283.9922 0001734  77.7415 282.3771 15.08862940 76898,6917.81,95.436,540.875,538.476,0.0
53160.0,STARLINK-4096,PAYLOAD,2023-12-02 02:56:40,15.08884126,0.000195,53.2171,283.7009,86.0601,274.0614,0.0020116,0.00031911,0.0,0 STARLINK-4096,1 53160U 22083AE  23336.12269110  .00031911  00000-0  20116-2 0  9996,2 53160  53.2171 283.7009 0001950  86.0601 274.0614 15.08884126 76900,6917.746,95.435,540.959,538.262,0.0
53160.0,STARLINK-4096,PAYLOAD,2023-12-03 02:47:27,15.0883322,0.0002577,53.2181,279.2339,148.1469,211.9679,-0.00012263,-2.239e-05,0.0,0 STARLINK-4096,1 53160U 22083AE  23337.11629182 -.00002239  00000-0 -12263-3 0  9993,2 53160  53.2181 279.2339 0002577 148.1469 211.9679 15.08833220 77052,6917.901,95.438,541.549,537.983,0.0
53160.0,STARLINK-4096,PAYLOAD,2023-12-03 20:16:43,15.08816496,0.000161,53.2175,275.9767,103.0625,257.0547,0.00013539,1.866e-05,0.0,0 STARLINK-4096,1 53160U 22083AE  23337.84495249  .00001866  00000-0  13539-3 0  9998,2 53160  53.2175 275.9767 0001610 103.0625 257.0547 15.08816496 77167,6917.952,95.439,540.931,538.703,0.0
53160.0,STARLINK-4096,PAYLOAD,2023-12-04 02:38:16,15.08832076,0.0001659,53.2175,274.7885,96.1985,263.9197,-5.6687e-05,-1.19e-05,0.0,0 STARLINK-4096,1 53160U 22083AE  23338.10990981 -.00001190  00000-0 -56687-4 0  9995,2 53160  53.2175 274.7885 0001659  96.1985 263.9197 15.08832076 77203,6917.905,95.438,540.917,538.622,0.0
53160.0,STARLINK-4096,PAYLOAD,2023-12-04 05:49:02,15.08835498,0.000155,53.2161,274.1878,106.3077,253.8085,0.00015074,2.112e-05,0.0,0 STARLINK-4096,1 53160U 22083AE  23338.24238948  .00002112  00000-0  15074-3 0  9995,2 53160  53.2161 274.1878 0001550 106.3077 253.8085 15.08835498 76596,6917.894,95.438,540.831,538.687,0.0
53160.0,STARLINK-4096,PAYLOAD,2023-12-05 00:53:39,15.08858162,0.000161,53.2164,270.6197,105.0179,255.0992,0.00074511,0.00011596,0.0,0 STARLINK-4096,1 53160U 22083AE  23339.03726327  .00011596  00000-0  74511-3 0  9993,2 53160  53.2164 270.6197 0001610 105.0179 255.0992 15.08858162 77348,6917.825,95.436,540.804,538.576,0.0
53160.0,STARLINK-4096,PAYLOAD,2023-12-05 05:39:48,15.08872778,0.0001749,53.2169,269.7267,113.2554,246.8622,0.00092089,0.00014411,0.0,0 STARLINK-4096,1 53160U 22083AE  23339.23597706  .00014411  00000-0  92089-3 0  9991,2 53160  53.2169 269.7267 0001749 113.2554 246.8622 15.08872778 77371,6917.78,95.435,540.855,538.435,0.0
53160.0,STARLINK-4096,PAYLOAD,2023-12-05 19:58:16,15.08854503,0.0001542,53.2178,267.0498,100.8021,259.3145,0.00011081,1.477e-05,0.0,0 STARLINK-4096,1 53160U 22083AE  23339.83213591  .00001477  00000-0  11081-3 0  9995,2 53160  53.2178 267.0498 0001542 100.8021 259.3145 15.08854503 77465,6917.836,95.437,540.768,538.634,0.0
53160.0,STARLINK-4096,PAYLOAD,2023-12-06 02:19:48,15.0885294,0.0001397,53.2169,265.8603,96.6666,263.4485,0.00016791,2.386e-05,0.0,0 STARLINK-4096,1 53160U 22083AE  23340.09709475  .00002386  00000-0  16791-3 0  9999,2 53160  53.2169 265.8603 0001397  96.6666 263.4485 15.08852940 76874,6917.841,95.437,540.672,538.739,0.0
53160.0,STARLINK-4096,PAYLOAD,2023-12-06 19:49:04,15.08833464,0.0001488,53.2176,262.5904,99.3248,260.7913,0.00048691,7.468e-05,0.0,0 STARLINK-4096,1 53160U 22083AE  23340.82574131  .00007468  00000-0  48691-3 0  9999,2 53160  53.2176 262.5904 0001488  99.3248 260.7913 15.08833464 77616,6917.9,95.438,540.795,538.736,0.0
53160.0,STARLINK-4096,PAYLOAD,2023-12-07 00:35:13,15.08833286,0.000142,53.2173,261.6987,94.733,265.3824,0.00056982,8.791e-05,0.0,0 STARLINK-4096,1 53160U 22083AE  23341.02446314  .00008791  00000-0  56982-3 0  9995,2 53160  53.2173 261.6987 0001420  94.7330 265.3824 15.08833286 77019,6917.901,95.438,540.748,538.784,0.0
53160.0,STARLINK-4096,PAYLOAD,2023-12-08 02:01:23,15.08842671,0.0001335,53.2161,256.939,93.034,267.0805,0.00032665,4.915e-05,0.0,0 STARLINK-4096,1 53160U 22083AE  23342.08430331  .00004915  00000-0  32665-3 0  9990,2 53160  53.2161 256.9390 0001335  93.0340 267.0805 15.08842671 77802,6917.872,95.437,540.661,538.814,0.0
53160.0,STARLINK-4096,PAYLOAD,2023-12-08 17:55:15,15.08847047,0.0001283,53.2162,253.9675,93.981,266.1329,0.00029513,4.413e-05,0.0,0 STARLINK-4096,1 53160U 22083AE  23342.74670159  .00004413  00000-0  29513-3 0  9998,2 53160  53.2162 253.9675 0001283  93.9810 266.1329 15.08847047 77273,6917.859,95.437,540.611,538.836,0.0
